$$SOE
2461295.500000000, A.D. 2026-Sep-12 00:00:00.0000, -2.270496436831563E+08, 6.324210216304357E+07, -8.572708875145809E+07,
2461302.500000000, A.D. 2026-Sep-19 00:00:00.0000, -2.315038904693995E+08, 4.938678610788753E+07, -8.560625549667013E+07,
2461309.500000000, A.D. 2026-Sep-26 00:00:00.0000, -2.352537764211683E+08, 3.538117088516262E+07, -8.522492624476764E+07,
2461316.500000000, A.D. 2026-Oct-03 00:00:00.0000, -2.382962368584270E+08, 2.126911793003109E+07, -8.458728502121590E+07,
2461323.500000000, A.D. 2026-Oct-10 00:00:00.0000, -2.406309904967514E+08, 7.093848501879863E+06, -8.369839801630175E+07,
2461330.500000000, A.D. 2026-Oct-17 00:00:00.0000, -2.422604200178769E+08, -7.102270322261222E+06, -8.256414685810477E+07,
2461337.500000000, A.D. 2026-Oct-24 00:00:00.0000, -2.431894366903481E+08, -2.127791787405152E+07, -8.119115901180585E+07,
2461344.500000000, A.D. 2026-Oct-31 00:00:00.0000, -2.434253321887725E+08, -3.539298960613955E+07, -7.958673653318211E+07,
2461351.500000000, A.D. 2026-Nov-07 00:00:00.0000, -2.429776204404158E+08, -4.940874394352387E+07, -7.775878432409832E+07,
2461358.500000000, A.D. 2026-Nov-14 00:00:00.0000, -2.418578723117071E+08, -6.328792558605896E+07, -7.571573884856163E+07,
2461365.500000000, A.D. 2026-Nov-21 00:00:00.0000, -2.400795477463888E+08, -7.699486519009355E+07, -7.346649797788240E+07,
2461372.500000000, A.D. 2026-Nov-28 00:00:00.0000, -2.376578289021344E+08, -9.049555939187883E+07, -7.102035288492031E+07,
2461379.500000000, A.D. 2026-Dec-05 00:00:00.0000, -2.346094529396000E+08, -1.037577330544307E+08, -6.838692301293533E+07,
2461386.500000000, A.D. 2026-Dec-12 00:00:00.0000, -2.309525462715500E+08, -1.167508820490769E+08, -6.557609438735744E+07,
2461393.500000000, A.D. 2026-Dec-19 00:00:00.0000, -2.267064638181506E+08, -1.294462981273007E+08, -6.259796147496111E+07,
2461400.500000000, A.D. 2026-Dec-26 00:00:00.0000, -2.218916347682409E+08, -1.418170784069793E+08, -5.946277291584569E+07,
2461407.500000000, A.D. 2027-Jan-02 00:00:00.0000, -2.165294156538707E+08, -1.538381213620290E+08, -5.618088134397127E+07,
2461414.500000000, A.D. 2027-Jan-09 00:00:00.0000, -2.106419514489743E+08, -1.654861109821381E+08, -5.276269739220715E+07,
2461421.500000000, A.D. 2027-Jan-16 00:00:00.0000, -2.042520452427138E+08, -1.767394907343701E+08, -4.921864788936824E+07,
2461428.500000000, A.D. 2027-Jan-23 00:00:00.0000, -1.973830368093586E+08, -1.875784289384002E+08, -4.555913819431692E+07,
2461435.500000000, A.D. 2027-Jan-30 00:00:00.0000, -1.900586900670086E+08, -1.979847770876978E+08, -4.179451857302719E+07,
2461442.500000000, A.D. 2027-Feb-06 00:00:00.0000, -1.823030890218319E+08, -2.079420221581845E+08, -3.793505447288340E+07,
2461449.500000000, A.D. 2027-Feb-13 00:00:00.0000, -1.741405425474641E+08, -2.174352329518288E+08, -3.399090036261508E+07,
2461456.500000000, A.D. 2027-Feb-20 00:00:00.0000, -1.655955001445999E+08, -2.264510024114142E+08, -2.997207677073884E+07,
2461463.500000000, A.D. 2027-Feb-27 00:00:00.0000, -1.566924769811614E+08, -2.349773901408246E+08, -2.588845067973894E+07,
2461470.500000000, A.D. 2027-Mar-06 00:00:00.0000, -1.474559848215229E+08, -2.430038641002537E+08, -2.174971914895414E+07,
2461477.500000000, A.D. 2027-Mar-13 00:00:00.0000, -1.379104700038826E+08, -2.505212401950614E+08, -1.756539560107791E+07,
2461484.500000000, A.D. 2027-Mar-20 00:00:00.0000, -1.280802591041040E+08, -2.575216212656120E+08, -1.334479849666856E+07,
2461491.500000000, A.D. 2027-Mar-27 00:00:00.0000, -1.179895115817833E+08, -2.639983366252767E+08, -9.097042235808775E+06,
2461498.500000000, A.D. 2027-Apr-03 00:00:00.0000, -1.076621787179235E+08, -2.699458827123687E+08, -4.831030093804762E+06,
2461505.500000000, A.D. 2027-Apr-10 00:00:00.0000, -9.712196830983628E+07, -2.753598652603361E+08, -5.554489810581803E+05,
2461512.500000000, A.D. 2027-Apr-17 00:00:00.0000, -8.639231463459894E+07, -2.802369433381171E+08, 3.721234179687172E+06,
2461519.500000000, A.D. 2027-Apr-24 00:00:00.0000, -7.549635313844307E+07, -2.845747755822715E+08, 7.990774646283209E+06,
2461526.500000000, A.D. 2027-May-01 00:00:00.0000, -6.445689909743521E+07, -2.883719687912628E+08, 1.224515078001991E+07,
2461533.500000000, A.D. 2027-May-08 00:00:00.0000, -5.329642950471146E+07, -2.916280282831827E+08, 1.647656390064943E+07,
2461540.500000000, A.D. 2027-May-15 00:00:00.0000, -4.203706926737484E+07, -2.943433091702061E+08, 2.067743744363996E+07,
2461547.500000000, A.D. 2027-May-22 00:00:00.0000, -3.070058288731859E+07, -2.965189712099596E+08, 2.484041549247929E+07,
2461554.500000000, A.D. 2027-May-29 00:00:00.0000, -1.930836790595855E+07, -2.981569387431720E+08, 2.895836038752174E+07,
2461561.500000000, A.D. 2027-Jun-05 00:00:00.0000, -7.881448893214452E+06, -2.992598626038178E+08, 3.302434970551319E+07,
2461568.500000000, A.D. 2027-Jun-12 00:00:00.0000, 3.559526318300495E+06, -2.998310835613323E+08, 3.703167293803121E+07,
2461575.500000000, A.D. 2027-Jun-19 00:00:00.0000, 1.499428810441122E+07, -2.998745981969067E+08, 4.097382791979523E+07,
2461582.500000000, A.D. 2027-Jun-26 00:00:00.0000, 2.640294476445600E+07, -2.993950274220955E+08, 4.484451704413542E+07,
2461589.500000000, A.D. 2027-Jul-03 00:00:00.0000, 3.776598085415262E+07, -2.983975875624860E+08, 4.863764332538980E+07,
2461596.500000000, A.D. 2027-Jul-10 00:00:00.0000, 4.906425440318955E+07, -2.968880639211155E+08, 5.234730636623788E+07,
2461603.500000000, A.D. 2027-Jul-17 00:00:00.0000, 6.027899327261434E+07, -2.948727867871469E+08, 5.596779828003030E+07,
2461610.500000000, A.D. 2027-Jul-24 00:00:00.0000, 7.139179100853831E+07, -2.923586098858216E+08, 5.949359960585196E+07,
2461617.500000000, A.D. 2027-Jul-31 00:00:00.0000, 8.238460278023894E+07, -2.893528909676064E+08, 6.291937525426428E+07,
2461624.500000000, A.D. 2027-Aug-07 00:00:00.0000, 9.323974135759892E+07, -2.858634733123559E+08, 6.623997064792773E+07,
2461631.500000000, A.D. 2027-Aug-14 00:00:00.0000, 1.039398709663795E+08, -2.818986683211910E+08, 6.945040829162157E+07,
2461638.500000000, A.D. 2027-Aug-21 00:00:00.0000, 1.144679997692165E+08, -2.774672424731585E+08, 7.254588447642106E+07,
2461645.500000000, A.D. 2027-Aug-28 00:00:00.0000, 1.248074745273303E+08, -2.725784073578067E+08, 7.552176593410036E+07,
2461652.500000000, A.D. 2027-Sep-04 00:00:00.0000, 1.349419763781108E+08, -2.672418101999676E+08, 7.837358678507787E+07,
2461659.500000000, A.D. 2027-Sep-11 00:00:00.0000, 1.448555164415122E+08, -2.614675254574750E+08, 8.109704588139333E+07,
2461666.500000000, A.D. 2027-Sep-18 00:00:00.0000, 1.545324314907620E+08, -2.552660480620849E+08, 8.368800450445127E+07,
2461673.500000000, A.D. 2027-Sep-25 00:00:00.0000, 1.639573800136751E+08, -2.486482883032279E+08, 8.614248441388197E+07,
2461680.500000000, A.D. 2027-Oct-02 00:00:00.0000, 1.731153388322562E+08, -2.416255682509956E+08, 8.845666626533861E+07,
2461687.500000000, A.D. 2027-Oct-09 00:00:00.0000, 1.819916003913881E+08, -2.342096196474901E+08, 9.062688841526720E+07,
2461694.500000000, A.D. 2027-Oct-16 00:00:00.0000, 1.905717708664300E+08, -2.264125832451258E+08, 9.264964612089397E+07,
2461701.500000000, A.D. 2027-Oct-23 00:00:00.0000, 1.988417694380795E+08, -2.182470095215482E+08, 9.452159113075891E+07,
2461708.500000000, A.D. 2027-Oct-30 00:00:00.0000, 2.067878291987857E+08, -2.097258600885627E+08, 9.623953170482810E+07,
2461715.500000000, A.D. 2027-Nov-06 00:00:00.0000, 2.143964986140143E+08, -2.008625085978487E+08, 9.780043328800099E+07,
2461722.500000000, A.D. 2027-Nov-13 00:00:00.0000, 2.216546416358442E+08, -1.916707431478381E+08, 9.920141987119952E+07,
2461729.500000000, A.D. 2027-Nov-20 00:00:00.0000, 2.285494394541898E+08, -1.821647722997632E+08, 1.004397756145180E+08,
2461736.500000000, A.D. 2027-Nov-27 00:00:00.0000, 2.350683955906345E+08, -1.723592316594970E+08, 1.015129468477961E+08,
2461743.500000000, A.D. 2027-Dec-04 00:00:00.0000, 2.411993423989885E+08, -1.622691900327547E+08, 1.024185447307378E+08,
2461750.500000000, A.D. 2027-Dec-11 00:00:00.0000, 2.469304485083455E+08, -1.519101560334869E+08, 1.031543485616660E+08,
2461757.500000000, A.D. 2027-Dec-18 00:00:00.0000, 2.522502275728867E+08, -1.412980853897889E+08, 1.037183096952792E+08,
2461764.500000000, A.D. 2027-Dec-25 00:00:00.0000, 2.571475485775760E+08, -1.304493888432574E+08, 1.041085560698755E+08,
2461771.500000000, A.D. 2028-Jan-01 00:00:00.0000, 2.616116478471565E+08, -1.193809405130560E+08, 1.043233973630253E+08,
$$EOE